#aV2020  7 11  0  0  0.00000000     288 DD+AD WGS84 FIT  NGA
## 2113 518400.00000000   300.00000000 59041 0.0000000000000
+   31     1  2  3  4  5  6  7  8  9 10 11 12 13 14 15 16 17
+         18 19 20 21 22 24 25 26 27 28 29 30 31 32  0  0  0
+          0  0  0  0  0  0  0  0  0  0  0  0  0  0  0  0  0
+          0  0  0  0  0  0  0  0  0  0  0  0  0  0  0  0  0
+          0  0  0  0  0  0  0  0  0  0  0  0  0  0  0  0  0
++         2  2  2  2  2  2  2  2  2  2  2  2  2  2  2  2  2
++         2  2  2  2  2  2  2  2  2  2  2  2  2  2  0  0  0
++         0  0  0  0  0  0  0  0  0  0  0  0  0  0  0  0  0
++         0  0  0  0  0  0  0  0  0  0  0  0  0  0  0  0  0
++         0  0  0  0  0  0  0  0  0  0  0  0  0  0  0  0  0
%c cc cc ccc ccc cccc cccc cccc cccc ccccc ccccc ccccc ccccc
%c cc cc ccc ccc cccc cccc cccc cccc ccccc ccccc ccccc ccccc
%f  0.0000000  0.000000000  0.00000000000  0.000000000000000
%f  0.0000000  0.000000000  0.00000000000  0.000000000000000
%i    0    0    0    0      0      0      0      0         0
%i    0    0    0    0      0      0      0      0         0
/*      NGA, ST. LOUIS,MO.                                  
/*   EPHEMERIS COMPUTED FROM 2 DAYS OF DATA                 
/*   EPOCHA v5 SMOOTHER                                     
/*   G1762 IERS2010 SATAF SATAPC                            
*  2020  7 11 13 35  0.00000000
P  1  13932.296857 -16683.835883  14796.478954     24.191548                    
V  1  -2400.323273  19237.033718  23907.814036      0.045625                    
P  2 -14071.099647  -5942.185871 -21097.814376   -485.626562                    
V  2   4546.923895 -27940.920043   4653.378390     -0.057268                    
P  3  22284.054578 -12396.017650  -7309.026476   -236.433188                    
V  3   9551.074825   -355.118495  30107.195571     -0.116499                    
P  4  11713.283163  -9821.811315 -21709.470221   -113.410668                    
V  4  19694.972221  19332.089260   1845.959377     -0.046442                    
P  5 -24129.318979    -76.668976 -11463.698835    -16.429844                    
V  5  12655.125096  -7050.386070 -26730.661507     -0.007797                    
P  6  -7819.747157 -18530.437530 -17273.267962   -301.568712                    
V  6   6050.274071 -21202.407290  19988.640810     -0.051965                    
P  7   5072.820755 -25780.568237   1159.394210   -324.776728                    
V  7   3655.755581   -308.313040 -31855.046154     -0.087225                    
P  8  19538.847555    656.527722  18107.655682    -40.590085                    
V  8  16291.902688  16078.326447 -17921.069088     -0.012345                    
P  9    237.917281 -18183.533944 -19402.422439   -251.761829                    
V  9  19335.921277  15210.497105 -14069.148580     -0.065108                    
P 10   6200.782275  13877.075643  21878.532318   -396.580672                    
V 10 -26200.641174   8486.590477   1815.440761     -0.107274                    
P 11  14265.423083  -7997.547186  20474.977148   -224.149441                    
V 11   7432.698485  26258.190521   4632.012103      0.106358                    
P 12 -23079.043246  10788.162450  -7461.707043     95.111171                    
V 12  -9444.605934     16.037968  30331.800398     -0.048680                    
P 13 -20601.050829  -9769.941939  13588.341485     25.815275                    
V 13  -9745.552022 -14553.507034 -24923.217817      0.033161                    
P 14  18298.559132  19384.117354   -166.756481      0.554808                    
V 14  -1530.436575   2298.530239  31620.152031      0.028411                    
P 15 -19660.597411   1943.815797  17600.374512   -218.272567                    
V 15 -17348.261056 -15169.764057 -17012.025292      0.025959                    
P 16  25258.109084    641.781248  -9110.589734   -181.376990                    
V 16 -10474.959514   4053.103196 -29031.173631     -0.047742                    
P 17 -13302.656215 -21582.159050   8415.560104    294.299779                    
V 17   8339.328434   5921.346332  29827.980892      0.057964                    
P 18  -5633.242494  25921.888092    955.125849    243.530731                    
V 18  -2947.413102    546.513661 -31821.169606      0.095807                    
P 19 -17811.861540 -19733.780187   -189.715076   -133.462196                    
V 19   1657.685807  -1315.221309  32187.256946      0.050771                    
P 20  -5944.947784  17941.906963  18492.402793    527.322462                    
V 20 -22343.256543   8460.830996 -15554.490278     -0.000777                    
P 21   7537.622085  21337.052698  14914.788749     22.389686                    
V 21  -4374.561245  17075.140404 -23124.021479      0.045978                    
P 22  24721.433932  -9449.681158   1114.732819   -772.742286                    
V 22    397.155394   4017.345622  31142.628992      0.025529                    
P 24 -14358.871406  14971.209413  16176.830941    -15.492593                    
V 24    624.447754 -21287.401889  20376.828172     -0.004840                    
P 25 -14783.733590  15878.764649 -15382.078473     22.142392                    
V 25 -18905.846034   3913.907946  22812.033096      0.041883                    
P 26  17274.864696   8059.106932 -18618.423502    241.420089                    
V 26 -21644.162975   9383.457102 -15826.269856      0.068561                    
P 27  22140.494792  10828.338115  10183.282688   -343.118632                    
V 27   8421.984961  10081.091242 -28295.629056     -0.096307                    
P 28  -6494.643781 -13930.405793  22230.614685    700.598043                    
V 28  26115.685464  -6050.924676   4086.927441     -0.036800                    
P 29  -5219.545919  14998.555417 -21328.462853   -147.874111                    
V 29 -19011.521782 -19057.986991  -8803.856466     -0.086312                    
P 30  -2218.620623 -24000.295360  10956.749986   -259.834910                    
V 30   6520.027848 -12756.878585 -26956.328508     -0.077191                    
P 31   9076.762076  16870.481894 -18240.596817    -54.883496                    
V 31  -7338.135270  22144.774904  17315.895564     -0.025000                    
P 32  15276.679869  20599.565860   7290.633272    315.223029                    
V 32  -8549.584812  -4111.560606  29738.687396      0.062842                    
EOF
